NOAA 1 [-]              
1 04793U 70106A   19249.54727394 -.00000050  00000-0 -36380-4 0  9994
2 04793 101.6978 317.0480 0032143 131.4552   2.9446 12.53991287230865
NOAA 2 (ITOS-D) [-]     
1 06235U 72082A   19249.39460846 -.00000018  00000-0  17455-3 0  9995
2 06235 101.8033 215.3491 0003602 219.4676 295.7243 12.53118090145052
NOAA 3 [-]              
1 06920U 73086A   19249.35105329 -.00000052  00000-0 -49604-4 0  9990
2 06920 102.0592 217.7233 0006785   8.9714 162.9881 12.40341797 75126
NOAA 4 [-]              
1 07529U 74089A   19249.38466113 -.00000022  00000-0  14626-3 0  9995
2 07529 101.7608 216.2490 0008474 253.0049 261.8098 12.53133951 49648
NOAA 5 [-]              
1 09057U 76077A   19249.07766502 -.00000065  00000-0 -15985-3 0  9990
2 09057 101.9399 218.3475 0009432 218.3989 211.1926 12.37748353948335
TIROS N [P]             
1 11060U 78096A   19248.75710884 -.00000004  00000-0  19615-4 0  9993
2 11060  98.7834 305.3239 0010762 175.8043 184.3224 14.18242137327872
NOAA 6 [P]              
1 11416U 79057A   19249.39957214  .00000029  00000-0  26738-4 0  9997
2 11416  98.6424 243.3854 0010746  19.3523 340.8067 14.33542352 96294
NOAA 7 [-]              
1 12553U 81059A   19249.50751399 -.00000023  00000-0  11470-4 0  9996
2 12553  99.0973 258.7000 0012426 114.5695  38.8425 14.17262592974259
NOAA 8 [-]              
1 13923U 83022A   19249.38015554  .00000003  00000-0  18595-4 0  9994
2 13923  98.5888 233.4543 0014225 304.9551  55.0294 14.28680078897723
NOAA 9 [P]              
1 15427U 84123A   19249.36623606  .00000006  00000-0  25628-4 0  9997
2 15427  98.8980 198.2023 0014969 164.2703 307.4002 14.16075221793172
NOAA 10 [-]             
1 16969U 86073A   19249.48347653 -.00000002  00000-0  16479-4 0  9994
2 16969  98.4835 243.7537 0013203  54.7609  98.0368 14.28077598716224
NOAA 11 [-]             
1 19531U 88089A   19249.12024710 -.00000034  00000-0  36043-5 0  9993
2 19531  98.4426 279.2023 0010414 221.3945 138.6441 14.15244465597458
NOAA 12 [-]             
1 21263U 91032A   19249.49148193 -.00000019  00000-0  99178-5 0  9993
2 21263  98.5159 262.6322 0014813  71.2877 288.9909 14.25897837472344
NOAA 13 [-]             
1 22739U 93050A   19249.20628819 -.00000002  00000-0  21138-4 0  9993
2 22739  98.4695 267.7018 0009867  20.1544 340.0017 14.12736008343943
NOAA 14 [-]             
1 23455U 94089A   19249.52772370 -.00000039  00000-0  13650-5 0  9990
2 23455  98.5893 307.7500 0009404   3.7858 356.3385 14.14133846273508
NOAA 15 [B]             
1 25338U 98030A   19249.48004792  .00000023  00000-0  28307-4 0  9999
2 25338  98.7440 270.5907 0010664  17.5267 342.6279 14.25929559108621
NOAA 16 [-]             
1 26536U 00055A   19249.30358846 -.00000037  00000-0  32956-5 0  9995
2 26536  98.7699 319.6834 0010718 172.5072 187.6263 14.13234575977479
NOAA 17 [-]             
1 27453U 02032A   19249.31151260 -.00000005  00000-0  15926-4 0  9995
2 27453  98.5429 197.6266 0011631 355.1184   4.9881 14.25046680894294
NOAA 18 [B]             
1 28654U 05018A   19249.54208457  .00000049  00000-0  51359-4 0  9999
2 28654  99.0888 297.6799 0013457 315.9160  44.0937 14.12449602736784
NOAA 19 [+]             
1 33591U 09005A   19249.45745621  .00000028  00000-0  40555-4 0  9997
2 33591  99.1851 242.5295 0014423 151.1838 209.0132 14.12374776545166
SUOMI NPP [+]           
1 37849U 11061A   19248.87245417  .00000012  00000-0  26450-4 0  9996
2 37849  98.7386 186.0087 0001295  64.3485  10.4374 14.19548802407115
NOAA 20 [+]             
1 43013U 17073A   19249.31525221 -.00000000  00000-0  20547-4 0  9998
2 43013  98.7233 186.2754 0001482  81.4897 278.6447 14.19542507 93200
